{"type": "FeatureCollection", "features": [ {"type": "Feature", "properties": {"norad_id": 42741, "name": "EUTELSAT 172B", "group": "eutelsat", "lat": -0.010085568745866491, "lon": -137.49753858546495, "alt_km": 35786.54533486071, "timestamp": "2025-12-16T21:38:56.841827+00:00", "meta": {"OBJECT_NAME": "EUTELSAT 172B", "OBJECT_ID": "2017-029B", "EPOCH": "2025-12-16T07:32:38.663232", "MEAN_MOTION": 1.00272471, "ECCENTRICITY": 1.985e-05, "INCLINATION": 0.0466, "RA_OF_ASC_NODE": 152.6624, "ARG_OF_PERICENTER": 285.8353, "MEAN_ANOMALY": 291.8587, "EPHEMERIS_TYPE": 0, "CLASSIFICATION_TYPE": "U", "NORAD_CAT_ID": 42741, "ELEMENT_SET_NO": 999, "REV_AT_EPOCH": 3189, "BSTAR": 0, "MEAN_MOTION_DOT": 1.8e-07, "MEAN_MOTION_DDOT": 0}, "tle": {"line1": "1 42741U 17029B   25350.31433638  .00000018  00000+0  00000+0 0  9990", "line2": "2 42741   0.0466 152.6624 0000198 285.8353 291.8587  1.00272471 31899"}}, "geometry": {"type": "Point", "coordinates": [-137.49753858546495, -0.010085568745866491]}}, {"type": "Feature", "properties": {"norad_id": 44334, "name": "EUTELSAT 7C", "group": "eutelsat", "lat": -0.03245487246616708, "lon": 57.50450951687009, "alt_km": 35798.906443978136, "timestamp": "2025-12-16T21:38:56.841840+00:00", "meta": {"OBJECT_NAME": "EUTELSAT 7C", "OBJECT_ID": "2019-034B", "EPOCH": "2025-12-16T06:32:32.017056", "MEAN_MOTION": 1.00271438, "ECCENTRICITY": 0.00030713, "INCLINATION": 0.0724, "RA_OF_ASC_NODE": 177.2222, "ARG_OF_PERICENTER": 71.2074, "MEAN_ANOMALY": 301.8567, "EPHEMERIS_TYPE": 0, "CLASSIFICATION_TYPE": "U", "NORAD_CAT_ID": 44334, "ELEMENT_SET_NO": 999, "REV_AT_EPOCH": 500, "BSTAR": 0, "MEAN_MOTION_DOT": 7.2e-07, "MEAN_MOTION_DDOT": 0}, "tle": {"line1": "1 44334U 19034B   25350.27259279  .00000072  00000+0  00000+0 0  9990", "line2": "2 44334   0.0724 177.2222 0003071  71.2074 301.8567  1.00271438  5009"}}, "geometry": {"type": "Point", "coordinates": [57.50450951687009, -0.03245487246616708]}}, {"type": "Feature", "properties": {"norad_id": 44624, "name": "EUTELSAT 5 WEST B", "group": "eutelsat", "lat": 0.09314753663477861, "lon": 45.54665847324538, "alt_km": 35796.075480017505, "timestamp": "2025-12-16T21:38:56.841851+00:00", "meta": {"OBJECT_NAME": "EUTELSAT 5 WEST B", "OBJECT_ID": "2019-067A", "EPOCH": "2025-12-16T06:29:02.351904", "MEAN_MOTION": 1.00273387, "ECCENTRICITY": 0.00032198, "INCLINATION": 0.0722, "RA_OF_ASC_NODE": 327.4568, "ARG_OF_PERICENTER": 297.9911, "MEAN_ANOMALY": 271.9836, "EPHEMERIS_TYPE": 0, "CLASSIFICATION_TYPE": "U", "NORAD_CAT_ID": 44624, "ELEMENT_SET_NO": 999, "REV_AT_EPOCH": 2260, "BSTAR": 0, "MEAN_MOTION_DOT": -1.8e-07, "MEAN_MOTION_DDOT": 0}, "tle": {"line1": "1 44624U 19067A   25350.27016611 -.00000018  00000+0  00000+0 0  9990", "line2": "2 44624   0.0722 327.4568 0003219 297.9911 271.9836  1.00273387 22608"}}, "geometry": {"type": "Point", "coordinates": [45.54665847324538, 0.09314753663477861]}}, {"type": "Feature", "properties": {"norad_id": 45027, "name": "EUTELSAT KONNECT", "group": "eutelsat", "lat": -0.015783044314569155, "lon": 57.717538739676115, "alt_km": 35790.04337913749, "timestamp": "2025-12-16T21:38:56.841863+00:00", "meta": {"OBJECT_NAME": "EUTELSAT KONNECT", "OBJECT_ID": "2020-005B", "EPOCH": "2025-12-16T06:32:32.017056", "MEAN_MOTION": 1.00270669, "ECCENTRICITY": 0.000134, "INCLINATION": 0.0724, "RA_OF_ASC_NODE": 96.2196, "ARG_OF_PERICENTER": 191.0453, "MEAN_ANOMALY": 263.2312, "EPHEMERIS_TYPE": 0, "CLASSIFICATION_TYPE": "U", "NORAD_CAT_ID": 45027, "ELEMENT_SET_NO": 999, "REV_AT_EPOCH": 2250, "BSTAR": 0, "MEAN_MOTION_DOT": 7.3e-07, "MEAN_MOTION_DDOT": 0}, "tle": {"line1": "1 45027U 20005B   25350.27259279  .00000073  00000+0  00000+0 0  9991", "line2": "2 45027   0.0724  96.2196 0001340 191.0453 263.2312  1.00270669 22506"}}, "geometry": {"type": "Point", "coordinates": [57.717538739676115, -0.015783044314569155]}}, {"type": "Feature", "properties": {"norad_id": 49056, "name": "EUTELSAT QUANTUM", "group": "eutelsat", "lat": 0.033893161354981036, "lon": 98.23165632325072, "alt_km": 35800.658518263015, "timestamp": "2025-12-16T21:38:56.841874+00:00", "meta": {"OBJECT_NAME": "EUTELSAT QUANTUM", "OBJECT_ID": "2021-069B", "EPOCH": "2025-12-16T05:01:25.743072", "MEAN_MOTION": 1.00273361, "ECCENTRICITY": 0.00035684, "INCLINATION": 0.0119, "RA_OF_ASC_NODE": 4.6507, "ARG_OF_PERICENTER": 273.0909, "MEAN_ANOMALY": 290.4357, "EPHEMERIS_TYPE": 0, "CLASSIFICATION_TYPE": "U", "NORAD_CAT_ID": 49056, "ELEMENT_SET_NO": 999, "REV_AT_EPOCH": 1609, "BSTAR": 0, "MEAN_MOTION_DOT": 1.49e-06, "MEAN_MOTION_DDOT": 0}, "tle": {"line1": "1 49056U 21069B   25350.20932573  .00000149  00000+0  00000+0 0  9990", "line2": "2 49056   0.0119   4.6507 0003568 273.0909 290.4357  1.00273361 16090"}}, "geometry": {"type": "Point", "coordinates": [98.23165632325072, 0.033893161354981036]}}, {"type": "Feature", "properties": {"norad_id": 53765, "name": "EUTELSAT KONNECT VHTS", "group": "eutelsat", "lat": -0.017034948753367512, "lon": 53.25235494227943, "alt_km": 35796.14600710755, "timestamp": "2025-12-16T21:38:56.841887+00:00", "meta": {"OBJECT_NAME": "EUTELSAT KONNECT VHTS", "OBJECT_ID": "2022-110A", "EPOCH": "2025-12-16T06:31:17.136768", "MEAN_MOTION": 1.00270918, "ECCENTRICITY": 0.00023634, "INCLINATION": 0.0637, "RA_OF_ASC_NODE": 101.8947, "ARG_OF_PERICENTER": 141.2123, "MEAN_ANOMALY": 302.6175, "EPHEMERIS_TYPE": 0, "CLASSIFICATION_TYPE": "U", "NORAD_CAT_ID": 53765, "ELEMENT_SET_NO": 999, "REV_AT_EPOCH": 499, "BSTAR": 0, "MEAN_MOTION_DOT": 4.1e-07, "MEAN_MOTION_DDOT": 0}, "tle": {"line1": "1 53765U 22110A   25350.27172612  .00000041  00000+0  00000+0 0  9998", "line2": "2 53765   0.0637 101.8947 0002363 141.2123 302.6175  1.00270918  4996"}}, "geometry": {"type": "Point", "coordinates": [53.25235494227943, -0.017034948753367512]}}, {"type": "Feature", "properties": {"norad_id": 54048, "name": "EUTELSAT HOTBIRD 13F", "group": "eutelsat", "lat": 0.05538333401547381, "lon": 63.527780043542144, "alt_km": 35781.280700948526, "timestamp": "2025-12-16T21:38:56.841898+00:00", "meta": {"OBJECT_NAME": "EUTELSAT HOTBIRD 13F", "OBJECT_ID": "2022-134A", "EPOCH": "2025-12-14T22:02:26.653056", "MEAN_MOTION": 1.0027139, "ECCENTRICITY": 0.00023413, "INCLINATION": 0.0492, "RA_OF_ASC_NODE": 293.4772, "ARG_OF_PERICENTER": 68.5165, "MEAN_ANOMALY": 65.4415, "EPHEMERIS_TYPE": 0, "CLASSIFICATION_TYPE": "U", "NORAD_CAT_ID": 54048, "ELEMENT_SET_NO": 999, "REV_AT_EPOCH": 1152, "BSTAR": 0, "MEAN_MOTION_DOT": 1.07e-06, "MEAN_MOTION_DDOT": 0}, "tle": {"line1": "1 54048U 22134A   25348.91836404  .00000107  00000+0  00000+0 0  9996", "line2": "2 54048   0.0492 293.4772 0002341  68.5165  65.4415  1.00271390 11520"}}, "geometry": {"type": "Point", "coordinates": [63.527780043542144, 0.05538333401547381]}}, {"type": "Feature", "properties": {"norad_id": 54225, "name": "EUTELSAT HOTBIRD 13G", "group": "eutelsat", "lat": 0.01873825095423853, "lon": 63.48733334432294, "alt_km": 35788.46245245413, "timestamp": "2025-12-16T21:38:56.841910+00:00", "meta": {"OBJECT_NAME": "EUTELSAT HOTBIRD 13G", "OBJECT_ID": "2022-146A", "EPOCH": "2025-12-15T18:35:09.269376", "MEAN_MOTION": 1.00272541, "ECCENTRICITY": 0.0001793, "INCLINATION": 0.0499, "RA_OF_ASC_NODE": 235.66, "ARG_OF_PERICENTER": 298.8114, "MEAN_ANOMALY": 201.9832, "EPHEMERIS_TYPE": 0, "CLASSIFICATION_TYPE": "U", "NORAD_CAT_ID": 54225, "ELEMENT_SET_NO": 999, "REV_AT_EPOCH": 562, "BSTAR": 0, "MEAN_MOTION_DOT": 1.1e-06, "MEAN_MOTION_DDOT": 0}, "tle": {"line1": "1 54225U 22146A   25349.77441284  .00000110  00000+0  00000+0 0  9993", "line2": "2 54225   0.0499 235.6600 0001793 298.8114 201.9832  1.00272541  5627"}}, "geometry": {"type": "Point", "coordinates": [63.48733334432294, 0.01873825095423853]}}, {"type": "Feature", "properties": {"norad_id": 54259, "name": "EUTELSAT 10B", "group": "eutelsat", "lat": -0.007429189401985848, "lon": 60.47980034874057, "alt_km": 35784.61596943835, "timestamp": "2025-12-16T21:38:56.841922+00:00", "meta": {"OBJECT_NAME": "EUTELSAT 10B", "OBJECT_ID": "2022-157A", "EPOCH": "2025-12-16T06:33:24.433344", "MEAN_MOTION": 1.00271269, "ECCENTRICITY": 7.086e-05, "INCLINATION": 0.061, "RA_OF_ASC_NODE": 99.6997, "ARG_OF_PERICENTER": 19.5868, "MEAN_ANOMALY": 74.2081, "EPHEMERIS_TYPE": 0, "CLASSIFICATION_TYPE": "U", "NORAD_CAT_ID": 54259, "ELEMENT_SET_NO": 999, "REV_AT_EPOCH": 1119, "BSTAR": 0, "MEAN_MOTION_DOT": 9.1e-07, "MEAN_MOTION_DDOT": 0}, "tle": {"line1": "1 54259U 22157A   25350.27319946  .00000091  00000+0  00000+0 0  9996", "line2": "2 54259   0.0610  99.6997 0000708  19.5868  74.2081  1.00271269 11197"}}, "geometry": {"type": "Point", "coordinates": [60.47980034874057, -0.007429189401985848]}}, {"type": "Feature", "properties": {"norad_id": 59346, "name": "EUTELSAT 36D", "group": "eutelsat", "lat": 0.0470851125261053, "lon": 86.34351664021935, "alt_km": 35785.74820041156, "timestamp": "2025-12-16T21:38:56.841934+00:00", "meta": {"OBJECT_NAME": "EUTELSAT 36D", "OBJECT_ID": "2024-059A", "EPOCH": "2025-12-16T06:40:46.227648", "MEAN_MOTION": 1.00270923, "ECCENTRICITY": 3.664e-05, "INCLINATION": 0.0236, "RA_OF_ASC_NODE": 1.3305, "ARG_OF_PERICENTER": 13.214, "MEAN_ANOMALY": 206.6495, "EPHEMERIS_TYPE": 0, "CLASSIFICATION_TYPE": "U", "NORAD_CAT_ID": 59346, "ELEMENT_SET_NO": 999, "REV_AT_EPOCH": 631, "BSTAR": 0, "MEAN_MOTION_DOT": 0, "MEAN_MOTION_DDOT": 0}, "tle": {"line1": "1 59346U 24059A   25350.27831282  .00000000  00000+0  00000+0 0  9993", "line2": "2 59346   0.0236   1.3305 0000366  13.2140 206.6495  1.00270923  6314"}}, "geometry": {"type": "Point", "coordinates": [86.34351664021935, 0.0470851125261053]}}]}